[{"OBJECT_NAME":"ICESAT-2","OBJECT_ID":"2018-070A","EPOCH":"2026-03-09T22:54:12.225888","MEAN_MOTION":15.28328617,"ECCENTRICITY":0.00038245,"INCLINATION":91.9993,"RA_OF_ASC_NODE":264.2397,"ARG_OF_PERICENTER":123.8941,"MEAN_ANOMALY":236.2673,"EPHEMERIS_TYPE":0,"CLASSIFICATION_TYPE":"U","NORAD_CAT_ID":43613,"ELEMENT_SET_NO":999,"REV_AT_EPOCH":41730,"BSTAR":0.00014022643,"MEAN_MOTION_DOT":3.87e-5,"MEAN_MOTION_DDOT":0},{"OBJECT_NAME":"STARLINK-31505","OBJECT_ID":"2024-049G","EPOCH":"2026-03-09T09:59:08.022912","MEAN_MOTION":15.27615839,"ECCENTRICITY":0.00014869,"INCLINATION":43.0013,"RA_OF_ASC_NODE":145.1422,"ARG_OF_PERICENTER":273.5446,"MEAN_ANOMALY":86.5236,"EPHEMERIS_TYPE":0,"CLASSIFICATION_TYPE":"U","NORAD_CAT_ID":59237,"ELEMENT_SET_NO":999,"REV_AT_EPOCH":11236,"BSTAR":7.2801246e-5,"MEAN_MOTION_DOT":1.744e-5,"MEAN_MOTION_DDOT":0}]
